SHIYAN-1 (SY-1)         
1 28220U 04012A   26068.73650539  .00016393  00000+0  54854-3 0  9991
2 28220  97.8764 140.5238 0005873  23.6952 336.4557 15.31043463195862
STARLINK-35557          
1 66237U 25245D   26068.88050793  .00023776  00000+0  81219-3 0  9992
2 66237  53.1571 283.1634 0000979  78.2594 281.8517 15.30205177 21281
